[{"OBJECT_NAME":"STARLINK-4334","OBJECT_ID":"2022-105T","EPOCH":"2026-03-09T15:00:13.080096","MEAN_MOTION":15.05652455,"ECCENTRICITY":0.0002338,"INCLINATION":97.6033,"RA_OF_ASC_NODE":311.1978,"ARG_OF_PERICENTER":71.2278,"MEAN_ANOMALY":288.9203,"EPHEMERIS_TYPE":0,"CLASSIFICATION_TYPE":"U","NORAD_CAT_ID":53665,"ELEMENT_SET_NO":999,"REV_AT_EPOCH":19329,"BSTAR":7.4915e-6,"MEAN_MOTION_DOT":4.7e-7,"MEAN_MOTION_DDOT":0},{"OBJECT_NAME":"RAPIDEYE 3","OBJECT_ID":"2008-040D","EPOCH":"2026-03-09T19:34:21.496512","MEAN_MOTION":15.06489596,"ECCENTRICITY":0.00114187,"INCLINATION":97.3959,"RA_OF_ASC_NODE":102.9968,"ARG_OF_PERICENTER":27.1842,"MEAN_ANOMALY":332.9981,"EPHEMERIS_TYPE":0,"CLASSIFICATION_TYPE":"U","NORAD_CAT_ID":33315,"ELEMENT_SET_NO":999,"REV_AT_EPOCH":95131,"BSTAR":0.00019030529,"MEAN_MOTION_DOT":2.754e-5,"MEAN_MOTION_DDOT":0}]
